{
    "links": {
        "self": "http://www.neowsapp.com/rest/v1/neo/3831718?api_key=iIulBulltgU6a56xZRHN4H3l9WmuAYTsLGpBGhQ2"
    },
    "id": "3831718",
    "neo_reference_id": "3831718",
    "name": "(2018 TE4)",
    "designation": "2018 TE4",
    "nasa_jpl_url": "http://ssd.jpl.nasa.gov/sbdb.cgi?sstr=3831718",
    "absolute_magnitude_h": 22.9,
    "estimated_diameter": {
        "kilometers": {
            "estimated_diameter_min": 0.0699125232,
            "estimated_diameter_max": 0.1563291544
        },
        "meters": {
            "estimated_diameter_min": 69.9125232246,
            "estimated_diameter_max": 156.3291544087
        },
        "miles": {
            "estimated_diameter_min": 0.0434416145,
            "estimated_diameter_max": 0.097138403
        },
        "feet": {
            "estimated_diameter_min": 229.3718026961,
            "estimated_diameter_max": 512.8909429502
        }
    },
    "is_potentially_hazardous_asteroid": false,
    "close_approach_data": [
        {
            "close_approach_date": "2018-09-09",
            "close_approach_date_full": "2018-Sep-09 00:54",
            "epoch_date_close_approach": 1536454440000,
            "relative_velocity": {
                "kilometers_per_second": "12.6938322801",
                "kilometers_per_hour": "45697.7962082369",
                "miles_per_hour": "28394.8334272792"
            },
            "miss_distance": {
                "astronomical": "0.1310524345",
                "lunar": "50.9793970205",
                "kilometers": "19605165.059514515",
                "miles": "12182084.677209707"
            },
            "orbiting_body": "Earth"
        }
    ],
    "orbital_data": {
        "orbit_id": "3",
        "orbit_determination_date": "2018-10-20 06:54:52",
        "first_observation_date": "2018-10-07",
        "last_observation_date": "2018-10-19",
        "data_arc_in_days": 12,
        "observations_used": 29,
        "orbit_uncertainty": "9",
        "minimum_orbit_intersection": ".0238965",
        "jupiter_tisserand_invariant": "3.260",
        "epoch_osculation": "2458401.5",
        "eccentricity": ".6226945882668502",
        "semi_major_axis": "2.344576587825989",
        "inclination": "7.692447447446672",
        "ascending_node_longitude": "241.1939768336128",
        "orbital_period": "1311.278869295425",
        "perihelion_distance": ".8846214348095881",
        "perihelion_argument": "59.25424233450229",
        "aphelion_distance": "3.80453174084239",
        "perihelion_time": "2458336.932725045272",
        "mean_anomaly": "17.72637348773235",
        "mean_motion": ".2745411433293627",
        "equinox": "J2000",
        "orbit_class": {
            "orbit_class_type": "APO",
            "orbit_class_description": "Near-Earth asteroid orbits which cross the Earth’s orbit similar to that of 1862 Apollo",
            "orbit_class_range": "a (semi-major axis) > 1.0 AU; q (perihelion) < 1.017 AU"
        }
    },
    "is_sentry_object": false
}